              M50 Cartesian                         J2K Cartesian  
    -----------------------------------       --------------------------------
     X    =       17364118.08                 X    =         5339778.81
     Y    =      -13926470.68  feet           Y    =        -4185339.20  meter
     Z    =         -82868.44                 Z    =             566.67
     XDOT =       9671.175581                 XDOT =        2935.459323
     YDOT =      12146.604372  feet/sec       YDOT =        3735.179291  meter/sec
     ZDOT =     -19792.345932                 ZDOT =       -6018.418081
 
              TDR Cartesian                         TDR Cartesian  
    -----------------------------------       --------------------------------
     X    =       -2359149.98                 X    =         -719068.91
     Y    =       22133674.82  feet           Y    =         6746344.09  meter
     Z    =          29993.67                 Z    =            9142.07
     XDOT =     -13907.360551                 XDOT =       -4238.963496
     YDOT =      -1436.972535  feet/sec       YDOT =        -437.989229  meter/sec
     ZDOT =     -19730.855491                 ZDOT =       -6013.964754
  
  
    The mean element set is posted at the UTC for which position is
    just north of the next ascending node relative to the above
    vector time
 
 
    TWO LINE MEAN ELEMENT SET
  
    ISS
    1 25544U 98067A   16080.16538245  .00016717  00000-0  10270-3 0  9073
    2 25544  51.6408 142.0185 0002302 325.9294  34.1711 15.54227814 31132
  
  
    Satellite: ISS
    Catalog Number: 25544
    Epoch time:      16080.16538245   =   yrday.fracday
    Element set:     907
    Inclination:       51.6408  deg
    RA of node:       142.0185  deg
    Eccentricity:     .0002302     
    Arg of perigee:   325.9294  deg
    Mean anomaly:      34.1711  deg
    Mean motion:   15.54227814  rev/day
    Decay rate:    1.67170E-04  rev/day^2
    Epoch rev:            3113
    Checksum:              279
 
 
    Coasting Arc #9 (Orbit 3117)
    ---------------------------------------
 
    Vector Time (GMT): 2016/080/10:25:00.000
    Vector Time (MET): N/A
    Weight (LBS)     : 905478.2
 
              M50 Cartesian                         M50 Keplerian  
    -----------------------------------       --------------------------------
     X    =       -4666838.38                 A    =         6779287.00  meter
     Y    =        -991388.42  meter          E    =           .0005680
     Z    =        4812643.76                 I    =           51.86520
     XDOT =       3959.571272                 Wp   =          112.51470
     YDOT =      -6037.216722  meter/sec      RA   =          139.62624  deg
     ZDOT =       2591.408867                 TA   =          312.02538
                                              MA   =          312.07372
                                              Ha   =            220.582  n.mi
                                              Hp   =            214.951
 
              M50 Cartesian                         J2K Cartesian  
    -----------------------------------       --------------------------------
     X    =      -15311149.54                 X    =        -4678783.08
     Y    =       -3252586.69  feet           Y    =        -1043642.21  meter
     Z    =       15789513.64                 Z    =         4789944.81
     XDOT =      12990.719395                 XDOT =        4014.198835
     YDOT =     -19807.141478  feet/sec       YDOT =       -5992.632353  meter/sec
     ZDOT =       8501.997596                 ZDOT =        2610.776805
 
              TDR Cartesian                         TDR Cartesian  
    -----------------------------------       --------------------------------
     X    =      -12391127.53                 X    =        -3776815.67
     Y    =       -9724713.05  feet           Y    =        -2964092.54  meter
     Z    =       15691057.21                 Z    =         4782634.24
     XDOT =      19645.094906                 XDOT =        5987.824927
     YDOT =     -11151.823546  feet/sec       YDOT =       -3399.075817  meter/sec
     ZDOT =       8587.094876                 ZDOT =        2617.346518
  
  
    The mean element set is posted at the UTC for which position is
    just north of the next ascending node relative to the above
    vector time
 
 
    TWO LINE MEAN ELEMENT SET
  
    ISS
    1 25544U 98067A   16080.48687519  .00016717  00000-0  10270-3 0  9088
    2 25544  51.6435 140.4150 0001926 318.4223  41.6783 15.54241672 31181
  
  
    Satellite: ISS
    Catalog Number: 25544
    Epoch time:      16080.48687519   =   yrday.fracday
    Element set:     908
    Inclination:       51.6435  deg
    RA of node:       140.4150  deg
    Eccentricity:     .0001926     
    Arg of perigee:   318.4223  deg
    Mean anomaly:      41.6783  deg
    Mean motion:   15.54241672  rev/day
    Decay rate:    1.67170E-04  rev/day^2
    Epoch rev:            3118
    Checksum:              303
 
 
    Coasting Arc #10 (Orbit 3132)
    ---------------------------------------
 
    Vector Time (GMT): 2016/081/10:25:00.000
    Vector Time (MET): N/A
    Weight (LBS)     : 905478.2
 
              M50 Cartesian                         M50 Keplerian  
    -----------------------------------       --------------------------------
     X    =        3505636.19                 A    =         6777289.37  meter
     Y    =        2373318.39  meter          E    =           .0013718
     Z    =       -5304238.48                 I    =           51.88074
     XDOT =      -4963.064843                 Wp   =           77.47875
     YDOT =       5792.218184  meter/sec      RA   =          134.64465  deg
     ZDOT =       -687.092427                 TA   =          185.96503
                                              MA   =          185.98139
                                              Ha   =            220.557  n.mi
                                              Hp   =            215.054
 
              M50 Cartesian                         J2K Cartesian  
    -----------------------------------       --------------------------------
     X    =       11501431.07                 X    =         3504602.10
     Y    =        7786477.65  feet           Y    =         2412514.14  meter
     Z    =      -17402357.23                 Z    =        -5287212.01
     XDOT =     -16283.021137                 XDOT =       -5024.128431
     YDOT =      19003.340498  feet/sec       YDOT =        5736.376359  meter/sec
     ZDOT =      -2254.240245                 ZDOT =        -711.350756
 
              TDR Cartesian                         TDR Cartesian  
    -----------------------------------       --------------------------------
     X    =        7187303.38                 X    =         2190690.07
     Y    =       11992120.37  feet           Y    =         3655198.29  meter
     Z    =      -17328759.54                 Z    =        -5281805.91
     XDOT =     -21941.562358                 XDOT =       -6687.788207
     YDOT =       9732.664265  feet/sec       YDOT =        2966.516068  meter/sec
     ZDOT =      -2360.556652                 ZDOT =        -719.497667
  
  
    The mean element set is posted at the UTC for which position is
    just north of the next ascending node relative to the above
    vector time
 
 
    TWO LINE MEAN ELEMENT SET
  
    ISS
    1 25544U 98067A   16081.45134945  .00016717  00000-0  10270-3 0  9097
    2 25544  51.6422 135.6076 0002007 324.5642  35.5377 15.54210528 31338
  
  
    Satellite: ISS
    Catalog Number: 25544
    Epoch time:      16081.45134945   =   yrday.fracday
    Element set:     909
    Inclination:       51.6422  deg
    RA of node:       135.6076  deg
    Eccentricity:     .0002007     
    Arg of perigee:   324.5642  deg
    Mean anomaly:      35.5377  deg
    Mean motion:   15.54210528  rev/day
    Decay rate:    1.67170E-04  rev/day^2
    Epoch rev:            3133
    Checksum:              289
 
 
    Coasting Arc #11 (Orbit 3148)
    ---------------------------------------
 
    Vector Time (GMT): 2016/082/10:25:00.000
    Vector Time (MET): N/A
    Weight (LBS)     : 905478.2
 
              M50 Cartesian                         M50 Keplerian  
    -----------------------------------       --------------------------------
     X    =       -2212210.76                 A    =         6777444.86  meter
     Y    =       -3728848.62  meter          E    =           .0004680
     Z    =        5207908.72                 I    =           51.90385
     XDOT =       5563.700237                 Wp   =           30.36548
     YDOT =      -5117.976392  meter/sec      RA   =          129.66123  deg
     ZDOT =      -1296.670551                 TA   =           72.06484
                                              MA   =           72.01382
                                              Ha   =            220.557  n.mi
                                              Hp   =            214.815
 
              M50 Cartesian                         J2K Cartesian  
    -----------------------------------       --------------------------------
     X    =       -7257909.32                 X    =        -2195647.08
     Y    =      -12233755.30  feet           Y    =        -3753493.57  meter
     Z    =       17086314.70                 Z    =         5197203.25
     XDOT =      18253.609701                 XDOT =        5626.815851
     YDOT =     -16791.261129  feet/sec       YDOT =       -5055.406706  meter/sec
     ZDOT =      -4254.168473                 ZDOT =       -1269.489507
 
